{"type":"FeatureCollection","features":[
{"type":"Feature","properties":{"municipio":"albolote","nombre":"Albolote","ine":"18003","osm_id":343443},"geometry":{"type":"MultiPolygon","coordinates":[[[[-3.64763,37.399669],[-3.648458,37.398754],[-3.649827,37.397692],[-3.650206,37.397131],[-3.651992,37.395922],[-3.653085,37.394285],[-3.653348,37.39331],[-3.653774,37.392902],[-3.655617,37.391819],[-3.65703,37.390612],[-3.657162,37.390179],[-3.657009,37.389522],[-3.659651,37.388029],[-3.662793,37.386929],[-3.66444,37.385424],[-3.66477,37.384421],[-3.662674,37.372111],[-3.662446,37.371887],[-3.666259,37.370126],[-3.667245,37.369246],[-3.667857,37.368143],[-3.668429,37.36768],[-3.671674,37.36567],[-3.672833,37.365149],[-3.672916,37.360489],[-3.670816,37.358085],[-3.672343,37.357103],[-3.672761,37.357082],[-3.67375,37.356554],[-3.676987,37.356166],[-3.678568,37.356166],[-3.678628,37.355327],[-3.680352,37.352397],[-3.680911,37.351736],[-3.682682,37.350301],[-3.683078,37.349145],[-3.683983,37.348139],[-3.683808,37.343733],[-3.683483,37.342779],[-3.681143,37.338646],[-3.680033,37.337021],[-3.678043,37.332859],[-3.677354,37.330303],[-3.676251,37.328227],[-3.675664,37.324364],[-3.674582,37.320791],[-3.675232,37.320265],[-3.675863,37.320117],[-3.683285,37.319624],[-3.684028,37.319421],[-3.686286,37.319561],[-3.687651,37.319454],[-3.688029,37.320101],[-3.688102,37.32065],[-3.68806,37.321038],[-3.687672,37.321735],[-3.691122,37.32139],[-3.697884,37.32026],[-3.69777,37.318899],[-3.701071,37.318303],[-3.701717,37.31738],[-3.702311,37.31688],[-3.704033,37.316374],[-3.705165,37.317954],[-3.706367,37.316198],[-3.706995,37.30975],[-3.705416,37.30663],[-3.705122,37.303969],[-3.703558,37.303474],[-3.702426,37.302658],[-3.701611,37.302412],[-3.695418,37.303233],[-3.694383,37.303178],[-3.692565,37.303404],[-3.690894,37.302364],[-3.689543,37.303953],[-3.688358,37.304942],[-3.684944,37.306202],[-3.682797,37.299108],[-3.68184,37.296696],[-3.679559,37.293475],[-3.677639,37.293418],[-3.675505,37.293892],[-3.672839,37.292783],[-3.672633,37.291841],[-3.673819,37.289571],[-3.67395,37.288676],[-3.673907,37.286737],[-3.673066,37.284429],[-3.672579,37.281405],[-3.672925,37.280323],[-3.672012,37.279069],[-3.672041,37.278884],[-3.671426,37.278556],[-3.67157,37.277865],[-3.672476,37.277331],[-3.673881,37.277321],[-3.674945,37.276331],[-3.676315,37.276239],[-3.676585,37.275927],[-3.676526,37.274772],[-3.677098,37.274661],[-3.677707,37.274894],[-3.67848,37.274703],[-3.679269,37.273523],[-3.679065,37.273069],[-3.679648,37.27291],[-3.680487,37.273032],[-3.679707,37.27163],[-3.680823,37.27098],[-3.681563,37.270282],[-3.682969,37.269341],[-3.686277,37.26567],[-3.686913,37.265151],[-3.687621,37.265044],[-3.688045,37.264702],[-3.688799,37.262384],[-3.688862,37.261441],[-3.690026,37.260607],[-3.692591,37.258347],[-3.693124,37.257488],[-3.693104,37.256519],[-3.694969,37.255475],[-3.695963,37.255141],[-3.696803,37.254091],[-3.69717,37.252104],[-3.697192,37.250568],[-3.69749,37.249546],[-3.698275,37.248904],[-3.698777,37.248099],[-3.699239,37.247704],[-3.699646,37.246641],[-3.700797,37.245715],[-3.698792,37.245299],[-3.696361,37.245281],[-3.695106,37.244952],[-3.693902,37.244341],[-3.692907,37.244276],[-3.688766,37.243072],[-3.686402,37.243016],[-3.686125,37.241377],[-3.685603,37.240769],[-3.684206,37.239774],[-3.68454,37.239418],[-3.683231,37.237832],[-3.683985,37.237032],[-3.683094,37.237042],[-3.679377,37.233275],[-3.677958,37.231632],[-3.677419,37.229469],[-3.67619,37.227658],[-3.676028,37.227808],[-3.675708,37.227504],[-3.676024,37.227191],[-3.67583,37.226943],[-3.675955,37.226766],[-3.675627,37.226268],[-3.675756,37.226179],[-3.675076,37.225497],[-3.673486,37.225045],[-3.67317,37.224415],[-3.671131,37.222787],[-3.672081,37.222187],[-3.672377,37.221713],[-3.671552,37.221279],[-3.670412,37.219681],[-3.669467,37.217877],[-3.667022,37.215893],[-3.669137,37.216579],[-3.670994,37.215141],[-3.670501,37.21464],[-3.66748,37.212559],[-3.667623,37.212433],[-3.667493,37.21224],[-3.665587,37.210887],[-3.665119,37.210283],[-3.664223,37.209768],[-3.662836,37.210165],[-3.661269,37.210204],[-3.661188,37.210637],[-3.659583,37.212613],[-3.658749,37.21218],[-3.65861,37.212722],[-3.65796,37.213526],[-3.656548,37.213157],[-3.65555,37.213571],[-3.654865,37.213422],[-3.653611,37.213963],[-3.651994,37.213796],[-3.650617,37.214914],[-3.649897,37.214883],[-3.649155,37.215184],[-3.648728,37.215953],[-3.647269,37.217048],[-3.646625,37.217169],[-3.646042,37.217878],[-3.644318,37.217479],[-3.641707,37.219046],[-3.639653,37.219477],[-3.638741,37.219345],[-3.639645,37.220331],[-3.636634,37.222094],[-3.637596,37.223118],[-3.641281,37.226035],[-3.640856,37.226357],[-3.644767,37.229459],[-3.643032,37.230782],[-3.644232,37.231755],[-3.643386,37.232396],[-3.644019,37.232885],[-3.642352,37.234145],[-3.643684,37.235124],[-3.64655,37.236722],[-3.646483,37.236803],[-3.648245,37.238118],[-3.647624,37.238402],[-3.647433,37.238991],[-3.646777,37.239425],[-3.646658,37.240165],[-3.644875,37.242644],[-3.643904,37.24374],[-3.643622,37.243688],[-3.641648,37.244996],[-3.64213,37.246003],[-3.642433,37.245785],[-3.642974,37.245791],[-3.644881,37.247232],[-3.64386,37.24786],[-3.64282,37.248821],[-3.64349,37.250791],[-3.640546,37.253268],[-3.63992,37.254474],[-3.639816,37.254985],[-3.63748,37.256178],[-3.63858,37.258209],[-3.638494,37.258751],[-3.639229,37.26027],[-3.638809,37.261255],[-3.64063,37.263334],[-3.641586,37.262934],[-3.642636,37.26575],[-3.642642,37.26648],[-3.644521,37.267254],[-3.644372,37.268292],[-3.644632,37.269669],[-3.645693,37.26979],[-3.646557,37.271903],[-3.646537,37.273472],[-3.647018,37.275687],[-3.646591,37.278519],[-3.647168,37.281283],[-3.646957,37.281708],[-3.64535,37.282465],[-3.645167,37.28353],[-3.644278,37.285022],[-3.643964,37.285258],[-3.643125,37.287498],[-3.64081,37.291197],[-3.640927,37.291692],[-3.64059,37.294534],[-3.640713,37.29566],[-3.639047,37.296137],[-3.63965,37.299397],[-3.639373,37.300039],[-3.638668,37.300673],[-3.638414,37.301396],[-3.638583,37.302675],[-3.639659,37.304463],[-3.637761,37.305501],[-3.635486,37.306054],[-3.63444,37.306537],[-3.633174,37.307508],[-3.630145,37.308309],[-3.629222,37.310044],[-3.628203,37.310897],[-3.626799,37.31305],[-3.62676,37.313798],[-3.626911,37.314338],[-3.627942,37.316253],[-3.627823,37.316776],[-3.627621,37.316903],[-3.627955,37.317794],[-3.628435,37.318486],[-3.628527,37.320026],[-3.628219,37.321002],[-3.62612,37.322374],[-3.625306,37.322279],[-3.625117,37.322622],[-3.625465,37.323738],[-3.626916,37.323181],[-3.628879,37.322999],[-3.628907,37.322368],[-3.629797,37.322147],[-3.629837,37.322823],[-3.63061,37.323549],[-3.629903,37.32403],[-3.629626,37.324645],[-3.62895,37.327497],[-3.627496,37.33047],[-3.627389,37.33111],[-3.627488,37.332138],[-3.6283,37.333449],[-3.62833,37.334405],[-3.629292,37.336049],[-3.626908,37.341182],[-3.625248,37.343904],[-3.624135,37.347181],[-3.623845,37.348914],[-3.622483,37.349525],[-3.621022,37.351633],[-3.619783,37.354839],[-3.619602,37.357544],[-3.624765,37.360537],[-3.625739,37.362199],[-3.626422,37.362944],[-3.626881,37.363752],[-3.627009,37.364202],[-3.626832,37.364717],[-3.627232,37.365247],[-3.627303,37.365643],[-3.62778,37.365956],[-3.629355,37.367913],[-3.629209,37.370798],[-3.629781,37.371588],[-3.632452,37.373638],[-3.633085,37.375059],[-3.633862,37.376145],[-3.634992,37.377473],[-3.635468,37.377687],[-3.635801,37.378316],[-3.637561,37.379406],[-3.638691,37.379517],[-3.639303,37.379767],[-3.639862,37.380385],[-3.639825,37.381287],[-3.639977,37.381953],[-3.639461,37.383651],[-3.639778,37.385181],[-3.640065,37.385684],[-3.639968,37.386244],[-3.639376,37.387031],[-3.639205,37.388114],[-3.639429,37.390609],[-3.639637,37.391113],[-3.634674,37.392095],[-3.635429,37.393164],[-3.637439,37.394379],[-3.636919,37.39568],[-3.637013,37.396085],[-3.640591,37.399716],[-3.642473,37.40049],[-3.644412,37.399957],[-3.645581,37.399247],[-3.646043,37.399146],[-3.646551,37.399107],[-3.64763,37.399669]]]]}},
{"type":"Feature","properties":{"municipio":"calicasas","nombre":"Calicasas","ine":"18037","osm_id":347437},"geometry":{"type":"MultiPolygon","coordinates":[[[[-3.64063,37.263334],[-3.63755,37.264479],[-3.63292,37.265036],[-3.630796,37.264696],[-3.629902,37.264223],[-3.628967,37.264417],[-3.627793,37.264225],[-3.626045,37.262945],[-3.624837,37.262744],[-3.621551,37.263609],[-3.615787,37.263477],[-3.614289,37.263791],[-3.609879,37.265067],[-3.608751,37.26793],[-3.608402,37.269365],[-3.608097,37.272152],[-3.607897,37.272505],[-3.606513,37.272953],[-3.606438,37.276199],[-3.605622,37.277149],[-3.605558,37.277573],[-3.606426,37.277542],[-3.609047,37.277997],[-3.611257,37.277941],[-3.610971,37.280205],[-3.610445,37.282209],[-3.609591,37.282537],[-3.610196,37.284842],[-3.610503,37.28521],[-3.612119,37.285481],[-3.612673,37.289823],[-3.613522,37.290188],[-3.615724,37.291853],[-3.616721,37.292317],[-3.617772,37.2926],[-3.618687,37.292649],[-3.620273,37.292127],[-3.621359,37.29387],[-3.622668,37.295278],[-3.625053,37.297077],[-3.625067,37.300142],[-3.625325,37.30134],[-3.625805,37.302031],[-3.6281,37.302659],[-3.629114,37.302401],[-3.630017,37.302477],[-3.630996,37.302184],[-3.633119,37.302326],[-3.63633,37.30175],[-3.638457,37.301098],[-3.638668,37.300673],[-3.639373,37.300039],[-3.63965,37.299397],[-3.639047,37.296137],[-3.640713,37.29566],[-3.64059,37.294534],[-3.640927,37.291692],[-3.64081,37.291197],[-3.643125,37.287498],[-3.643964,37.285258],[-3.644278,37.285022],[-3.645167,37.28353],[-3.64535,37.282465],[-3.646957,37.281708],[-3.647113,37.2815],[-3.646591,37.278519],[-3.647018,37.275687],[-3.646537,37.273472],[-3.646557,37.271903],[-3.645693,37.26979],[-3.644632,37.269669],[-3.644372,37.268292],[-3.644521,37.267254],[-3.642642,37.26648],[-3.642636,37.26575],[-3.641586,37.262934],[-3.64063,37.263334]]]]}}
]}
