{"type":"FeatureCollection","features":[
{"type":"Feature","geometry":{"type":"Polygon","coordinates":[[[-3.711504,37.310028],[-3.711465,37.309203],[-3.711191,37.308407],[-3.709862,37.305783],[-3.709627,37.303654],[-3.709183,37.302385],[-3.708194,37.301329],[-3.707535,37.300926],[-3.705989,37.300372],[-3.704788,37.29959],[-3.703215,37.299049],[-3.70166,37.298815],[-3.695194,37.299616],[-3.693822,37.299619],[-3.692897,37.299139],[-3.691115,37.298771],[-3.689296,37.298999],[-3.687673,37.29985],[-3.686152,37.295613],[-3.682967,37.291111],[-3.682294,37.29061],[-3.68064,37.289982],[-3.678332,37.289839],[-3.678471,37.288612],[-3.678428,37.286673],[-3.67825,37.285735],[-3.677506,37.283695],[-3.677173,37.281628],[-3.677439,37.280523],[-3.67737,37.279718],[-3.678585,37.27935],[-3.679386,37.278879],[-3.680299,37.277978],[-3.681363,37.277474],[-3.682606,37.27619],[-3.683745,37.275526],[-3.684296,37.27497],[-3.684939,37.273657],[-3.684969,37.272703],[-3.686642,37.271437],[-3.689447,37.268325],[-3.690839,37.26757],[-3.691767,37.266744],[-3.692421,37.265603],[-3.693199,37.263163],[-3.695945,37.260758],[-3.696644,37.25994],[-3.697408,37.25856],[-3.698518,37.258108],[-3.699213,37.257641],[-3.700615,37.256023],[-3.701274,37.254614],[-3.701641,37.252627],[-3.701702,37.251233],[-3.703155,37.2495],[-3.703643,37.24854],[-3.704553,37.247715],[-3.705218,37.246459],[-3.705249,37.245097],[-3.704641,37.243823],[-3.703481,37.242821],[-3.701937,37.242234],[-3.699932,37.241818],[-3.697106,37.241689],[-3.695344,37.240932],[-3.693884,37.24073],[-3.690044,37.239633],[-3.688797,37.238253],[-3.688423,37.237606],[-3.688441,37.236435],[-3.687784,37.235085],[-3.686513,37.23405],[-3.6855,37.233657],[-3.682208,37.230205],[-3.68167,37.22825],[-3.680427,37.226334],[-3.679763,37.224518],[-3.678035,37.222779],[-3.67683,37.222196],[-3.676837,37.221142],[-3.676595,37.220425],[-3.676172,37.219762],[-3.674958,37.218771],[-3.674234,37.217633],[-3.675187,37.216479],[-3.675445,37.215756],[-3.675508,37.215007],[-3.67505,37.213558],[-3.674056,37.212421],[-3.671491,37.210566],[-3.67104,37.210013],[-3.669085,37.208551],[-3.668426,37.207833],[-3.66611,37.2065],[-3.665284,37.206271],[-3.663544,37.206212],[-3.661981,37.206587],[-3.660239,37.206701],[-3.659391,37.206932],[-3.657947,37.207767],[-3.657108,37.208836],[-3.655523,37.209668],[-3.65275,37.210247],[-3.651742,37.210204],[-3.65013,37.210519],[-3.648557,37.211449],[-3.646249,37.21243],[-3.645543,37.213024],[-3.644962,37.213837],[-3.643094,37.214016],[-3.642312,37.214256],[-3.639697,37.215748],[-3.637768,37.215832],[-3.636918,37.216054],[-3.635462,37.216871],[-3.634516,37.218072],[-3.634263,37.219017],[-3.633296,37.21967],[-3.632382,37.220879],[-3.632122,37.222274],[-3.632254,37.222975],[-3.632556,37.223642],[-3.633979,37.225273],[-3.636538,37.227353],[-3.637096,37.228351],[-3.638728,37.229746],[-3.638515,37.230727],[-3.638781,37.231963],[-3.638194,37.232737],[-3.637922,37.233439],[-3.637934,37.2349],[-3.638677,37.236237],[-3.639287,37.236788],[-3.64235,37.238772],[-3.641001,37.240776],[-3.638106,37.242762],[-3.637277,37.244084],[-3.637185,37.245559],[-3.637907,37.247284],[-3.638429,37.248045],[-3.638312,37.24907],[-3.638466,37.249784],[-3.636753,37.251312],[-3.635962,37.252679],[-3.634329,37.253599],[-3.633745,37.254152],[-3.633047,37.255477],[-3.633056,37.256914],[-3.633982,37.258807],[-3.634067,37.259477],[-3.634443,37.260388],[-3.634305,37.261231],[-3.633031,37.261384],[-3.630648,37.260675],[-3.629578,37.260644],[-3.627744,37.259611],[-3.624977,37.259148],[-3.623418,37.259329],[-3.620886,37.259995],[-3.615917,37.259881],[-3.614636,37.259998],[-3.612745,37.26041],[-3.607585,37.261967],[-3.606339,37.26283],[-3.605886,37.263382],[-3.604313,37.267246],[-3.603783,37.270105],[-3.602786,37.270918],[-3.602362,37.271529],[-3.601993,37.272887],[-3.601943,37.275057],[-3.60139,37.275883],[-3.601133,37.27672],[-3.601049,37.277836],[-3.601505,37.279166],[-3.602555,37.280262],[-3.604047,37.280963],[-3.605431,37.281153],[-3.60507,37.282596],[-3.60577,37.285577],[-3.606429,37.286831],[-3.607289,37.28774],[-3.607915,37.288154],[-3.608348,37.290872],[-3.609173,37.292101],[-3.613441,37.294958],[-3.615271,37.295724],[-3.617913,37.296213],[-3.619032,37.297417],[-3.620538,37.298629],[-3.620545,37.300155],[-3.620868,37.301947],[-3.621367,37.30308],[-3.622313,37.304317],[-3.623578,37.305162],[-3.62664,37.306063],[-3.62598,37.306907],[-3.625377,37.30804],[-3.624188,37.309241],[-3.622428,37.312125],[-3.622241,37.313649],[-3.622345,37.314579],[-3.623137,37.316467],[-3.623117,37.31723],[-3.62368,37.318934],[-3.622755,37.319308],[-3.621571,37.32025],[-3.620974,37.321178],[-3.620679,37.321927],[-3.620595,37.32271],[-3.621074,37.324604],[-3.621831,37.325881],[-3.623148,37.326828],[-3.624248,37.327186],[-3.62328,37.329166],[-3.623011,37.329996],[-3.622878,37.331385],[-3.623124,37.333087],[-3.623802,37.334329],[-3.623925,37.335226],[-3.624395,37.336208],[-3.62274,37.339771],[-3.62088,37.342966],[-3.619646,37.34673],[-3.61852,37.347789],[-3.616696,37.350577],[-3.615457,37.353783],[-3.615264,37.354648],[-3.615124,37.358066],[-3.615728,37.359403],[-3.616266,37.359975],[-3.621155,37.362897],[-3.62232,37.364578],[-3.622563,37.365912],[-3.623355,37.367402],[-3.624775,37.368898],[-3.624731,37.371326],[-3.625286,37.372592],[-3.626636,37.374175],[-3.628541,37.375637],[-3.62915,37.376837],[-3.629927,37.377923],[-3.632454,37.380738],[-3.63517,37.382444],[-3.634937,37.383518],[-3.635269,37.385563],[-3.634884,37.386583],[-3.63469,37.388385],[-3.632712,37.388853],[-3.631252,37.389739],[-3.630356,37.391013],[-3.63017,37.392464],[-3.630725,37.393855],[-3.63148,37.394924],[-3.632429,37.395834],[-3.63256,37.396737],[-3.632885,37.397562],[-3.633447,37.398302],[-3.637701,37.402485],[-3.640391,37.403685],[-3.642146,37.404078],[-3.643954,37.40389],[-3.646511,37.403141],[-3.648457,37.403206],[-3.650057,37.402706],[-3.650738,37.402285],[-3.653782,37.399436],[-3.655523,37.398174],[-3.657085,37.395971],[-3.657424,37.395232],[-3.658932,37.394269],[-3.660345,37.393062],[-3.661186,37.39204],[-3.661438,37.391433],[-3.665479,37.389825],[-3.667857,37.387784],[-3.668444,37.387103],[-3.66915,37.385331],[-3.669256,37.383939],[-3.667514,37.373707],[-3.66964,37.372518],[-3.671052,37.371191],[-3.671631,37.370258],[-3.675828,37.367846],[-3.676465,37.367295],[-3.676945,37.366652],[-3.677359,37.3652],[-3.677344,37.359763],[-3.679419,37.359699],[-3.68024,37.359509],[-3.681002,37.359199],[-3.682239,37.358269],[-3.682957,37.357042],[-3.683097,37.356223],[-3.684303,37.354173],[-3.686402,37.352349],[-3.686784,37.35182],[-3.687231,37.350713],[-3.688145,37.349551],[-3.68843,37.348804],[-3.688331,37.343619],[-3.688175,37.342793],[-3.687609,37.341302],[-3.685269,37.337169],[-3.684154,37.335517],[-3.682394,37.331837],[-3.681778,37.329549],[-3.680666,37.327293],[-3.68004,37.323449],[-3.683571,37.323215],[-3.684318,37.324149],[-3.6857,37.324972],[-3.687369,37.325324],[-3.688236,37.325304],[-3.692052,37.32491],[-3.698814,37.32378],[-3.700497,37.323197],[-3.701192,37.322714],[-3.701923,37.321838],[-3.703545,37.321295],[-3.704772,37.321538],[-3.705645,37.321531],[-3.707305,37.321123],[-3.708649,37.320249],[-3.710704,37.317219],[-3.711504,37.310028]]]},"properties":{"margen_m":400,"version":"2026-09-18"}}
]}
